start=new Date('2022-06-21T00:00:00.000Z').valueOf();
sats=[{"EPHEMERIS_TYPE":"0","OBJECT_TYPE":"PAYLOAD","MEAN_MOTION":"15.06391883","FILE":"3498404","OBJECT_ID":"2021-005AU","SEMIMAJOR_AXIS":"6925.373","GP_ID":"206513831","APOAPSIS":"548.423","SITE":"AFETR","TLE_LINE2":"2 47391  53.0553   7.4269 0001710  68.9046 291.2125 15.06391883 78794","CENTER_NAME":"EARTH","PERIAPSIS":"546.054","EPOCH":"2022-06-20T19:14:23.553600","MEAN_ELEMENT_THEORY":"SGP4","LAUNCH_DATE":"2021-01-20","NORAD_CAT_ID":"47391","RA_OF_ASC_NODE":"7.4269","MEAN_MOTION_DDOT":"0.0000000000000","RCS_SIZE":"LARGE","INCLINATION":"53.0553","ELEMENT_SET_NO":"999","PERIOD":"95.593","ARG_OF_PERICENTER":"68.9046","TIME_SYSTEM":"UTC","DECAY_DATE":null,"COUNTRY_CODE":"US","BSTAR":"0.00008057600000","REF_FRAME":"TEME","TLE_LINE1":"1 47391U 21005AU  22171.80166150  .00000919  00000-0  80576-4 0  9991","REV_AT_EPOCH":"7879","OBJECT_NAME":"STARLINK-2112","MEAN_MOTION_DOT":"0.00000919","CLASSIFICATION_TYPE":"U","MEAN_ANOMALY":"291.2125","ECCENTRICITY":"0.00017100"},{"REF_FRAME":"TEME","COUNTRY_CODE":"US","BSTAR":"0.00005556100000","TLE_LINE1":"1 47392U 21005AV  22171.80260369  .00000546  00000-0  55561-4 0  9991","ELEMENT_SET_NO":"999","PERIOD":"95.592","RCS_SIZE":"LARGE","INCLINATION":"53.0574","DECAY_DATE":null,"ARG_OF_PERICENTER":"74.8498","TIME_SYSTEM":"UTC","CLASSIFICATION_TYPE":"U","MEAN_ANOMALY":"285.2657","ECCENTRICITY":"0.00015020","OBJECT_NAME":"STARLINK-2113","MEAN_MOTION_DOT":"0.00000546","REV_AT_EPOCH":"7879","APOAPSIS":"548.256","OBJECT_ID":"2021-005AV","SEMIMAJOR_AXIS":"6925.351","GP_ID":"206512594","SITE":"AFETR","TLE_LINE2":"2 47392  53.0574   7.4180 0001502  74.8498 285.2657 15.06399248 78792","CENTER_NAME":"EARTH","PERIAPSIS":"546.176","EPHEMERIS_TYPE":"0","OBJECT_TYPE":"PAYLOAD","FILE":"3498404","MEAN_MOTION":"15.06399248","LAUNCH_DATE":"2021-01-20","MEAN_MOTION_DDOT":"0.0000000000000","RA_OF_ASC_NODE":"7.4180","NORAD_CAT_ID":"47392","EPOCH":"2022-06-20T19:15:44.958816","MEAN_ELEMENT_THEORY":"SGP4"},{"APOAPSIS":"548.361","SEMIMAJOR_AXIS":"6925.354","GP_ID":"206512843","OBJECT_ID":"2021-005AW","PERIAPSIS":"546.077","CENTER_NAME":"EARTH","TLE_LINE2":"2 47393  53.0542 342.9349 0001649  61.3636 298.7519 15.06398340 79136","SITE":"AFETR","OBJECT_TYPE":"PAYLOAD","EPHEMERIS_TYPE":"0","MEAN_MOTION":"15.06398340","FILE":"3498404","LAUNCH_DATE":"2021-01-20","MEAN_MOTION_DDOT":"0.0000000000000","NORAD_CAT_ID":"47393","RA_OF_ASC_NODE":"342.9349","MEAN_ELEMENT_THEORY":"SGP4","EPOCH":"2022-06-20T18:18:05.564160","REF_FRAME":"TEME","BSTAR":"-0.00005316300000","COUNTRY_CODE":"US","TLE_LINE1":"1 47393U 21005AW  22171.76256440 -.00001073  00000-0 -53163-4 0  9996","PERIOD":"95.592","ELEMENT_SET_NO":"999","INCLINATION":"53.0542","RCS_SIZE":"LARGE","DECAY_DATE":null,"TIME_SYSTEM":"UTC","ARG_OF_PERICENTER":"61.3636","ECCENTRICITY":"0.00016490","MEAN_ANOMALY":"298.7519","CLASSIFICATION_TYPE":"U","MEAN_MOTION_DOT":"-0.00001073","OBJECT_NAME":"STARLINK-2114","REV_AT_EPOCH":"7913"},{"EPHEMERIS_TYPE":"0","OBJECT_TYPE":"PAYLOAD","MEAN_MOTION":"15.06395662","FILE":"3498404","APOAPSIS":"548.403","OBJECT_ID":"2021-005AX","SEMIMAJOR_AXIS":"6925.362","GP_ID":"206513087","TLE_LINE2":"2 47394  53.0570   2.4561 0001699  53.3503 306.7642 15.06395662 78872","CENTER_NAME":"EARTH","SITE":"AFETR","PERIAPSIS":"546.050","EPOCH":"2022-06-20T19:50:57.126912","MEAN_ELEMENT_THEORY":"SGP4","LAUNCH_DATE":"2021-01-20","MEAN_MOTION_DDOT":"0.0000000000000","NORAD_CAT_ID":"47394","RA_OF_ASC_NODE":"2.4561","ELEMENT_SET_NO":"999","PERIOD":"95.592","RCS_SIZE":"LARGE","INCLINATION":"53.0570","DECAY_DATE":null,"ARG_OF_PERICENTER":"53.3503","TIME_SYSTEM":"UTC","REF_FRAME":"TEME","COUNTRY_CODE":"US","BSTAR":"-0.00003275000000","TLE_LINE1":"1 47394U 21005AX  22171.82705008 -.00000769  00000-0 -32750-4 0  9993","OBJECT_NAME":"STARLINK-2115","MEAN_MOTION_DOT":"-0.00000769","REV_AT_EPOCH":"7887","CLASSIFICATION_TYPE":"U","ECCENTRICITY":"0.00016990","MEAN_ANOMALY":"306.7642"},{"CLASSIFICATION_TYPE":"U","ECCENTRICITY":"0.00017310","MEAN_ANOMALY":"305.5143","OBJECT_NAME":"STARLINK-2117","MEAN_MOTION_DOT":"-0.00001327","REV_AT_EPOCH":"7893","TLE_LINE1":"1 47395U 21005AY  22171.78141030 -.00001327  00000-0 -70172-4 0  9999","REF_FRAME":"TEME","COUNTRY_CODE":"US","BSTAR":"-0.00007017200000","DECAY_DATE":null,"ARG_OF_PERICENTER":"54.6008","TIME_SYSTEM":"UTC","ELEMENT_SET_NO":"999","PERIOD":"95.592","RCS_SIZE":"LARGE","INCLINATION":"53.0549","MEAN_MOTION_DDOT":"0.0000000000000","NORAD_CAT_ID":"47395","RA_OF_ASC_NODE":"357.5118","LAUNCH_DATE":"2021-01-20","EPOCH":"2022-06-20T18:45:13.849920","MEAN_ELEMENT_THEORY":"SGP4","TLE_LINE2":"2 47395  53.0549 357.5118 0001731  54.6008 305.5143 15.06401368 78933","CENTER_NAME":"EARTH","SITE":"AFETR","PERIAPSIS":"546.011","APOAPSIS":"548.408","OBJECT_ID":"2021-005AY","SEMIMAJOR_AXIS":"6925.344","GP_ID":"206513331","MEAN_MOTION":"15.06401368","FILE":"3498404","EPHEMERIS_TYPE":"0","OBJECT_TYPE":"PAYLOAD"},{"OBJECT_ID":"2021-005AZ","SEMIMAJOR_AXIS":"6925.342","GP_ID":"206512094","APOAPSIS":"548.142","SITE":"AFETR","TLE_LINE2":"2 47396  53.0558   7.6113 0001351  83.2113 276.9030 15.06402268 78795","CENTER_NAME":"EARTH","PERIAPSIS":"546.271","EPHEMERIS_TYPE":"0","OBJECT_TYPE":"PAYLOAD","FILE":"3498404","MEAN_MOTION":"15.06402268","LAUNCH_DATE":"2021-01-20","NORAD_CAT_ID":"47396","RA_OF_ASC_NODE":"7.6113","MEAN_MOTION_DDOT":"0.0000000000000","MEAN_ELEMENT_THEORY":"SGP4","EPOCH":"2022-06-20T18:12:03.168000","COUNTRY_CODE":"US","BSTAR":"0.00008298600000","REF_FRAME":"TEME","TLE_LINE1":"1 47396U 21005AZ  22171.75837000  .00000955  00000-0  82986-4 0  9996","RCS_SIZE":"LARGE","INCLINATION":"53.0558","ELEMENT_SET_NO":"999","PERIOD":"95.592","ARG_OF_PERICENTER":"83.2113","TIME_SYSTEM":"UTC","DECAY_DATE":null,"CLASSIFICATION_TYPE":"U","MEAN_ANOMALY":"276.9030","ECCENTRICITY":"0.00013510","REV_AT_EPOCH":"7879","OBJECT_NAME":"STARLINK-2118","MEAN_MOTION_DOT":"0.00000955"},{"FILE":"3498404","MEAN_MOTION":"15.06401911","EPHEMERIS_TYPE":"0","OBJECT_TYPE":"PAYLOAD","CENTER_NAME":"EARTH","TLE_LINE2":"2 47397  53.0550  37.0186 0001638  60.4420 299.6732 15.06401911 78392","SITE":"AFETR","PERIAPSIS":"546.073","OBJECT_ID":"2021-005BA","GP_ID":"206512343","SEMIMAJOR_AXIS":"6925.343","APOAPSIS":"548.342","EPOCH":"2022-06-20T21:19:09.488928","MEAN_ELEMENT_THEORY":"SGP4","RA_OF_ASC_NODE":"37.0186","NORAD_CAT_ID":"47397","MEAN_MOTION_DDOT":"0.0000000000000","LAUNCH_DATE":"2021-01-20","ARG_OF_PERICENTER":"60.4420","TIME_SYSTEM":"UTC","DECAY_DATE":null,"RCS_SIZE":"LARGE","INCLINATION":"53.0550","ELEMENT_SET_NO":"999","PERIOD":"95.592","TLE_LINE1":"1 47397U 21005BA  22171.88830427  .00002427  00000-0  18175-3 0  9991","COUNTRY_CODE":"US","BSTAR":"0.00018175000000","REF_FRAME":"TEME","REV_AT_EPOCH":"7839","OBJECT_NAME":"STARLINK-2119","MEAN_MOTION_DOT":"0.00002427","CLASSIFICATION_TYPE":"U","MEAN_ANOMALY":"299.6732","ECCENTRICITY":"0.00016380"},{"MEAN_ANOMALY":"287.3296","ECCENTRICITY":"0.00015480","CLASSIFICATION_TYPE":"U","REV_AT_EPOCH":"7879","MEAN_MOTION_DOT":"0.00000463","OBJECT_NAME":"STARLINK-2120","TLE_LINE1":"1 47398U 21005BB  22171.79523424  .00000463  00000-0  49965-4 0  9998","BSTAR":"0.00004996500000","COUNTRY_CODE":"US","REF_FRAME":"TEME","TIME_SYSTEM":"UTC","ARG_OF_PERICENTER":"72.7862","DECAY_DATE":null,"INCLINATION":"53.0544","RCS_SIZE":"LARGE","PERIOD":"95.593","ELEMENT_SET_NO":"999","NORAD_CAT_ID":"47398","RA_OF_ASC_NODE":"7.4526","MEAN_MOTION_DDOT":"0.0000000000000","LAUNCH_DATE":"2021-01-20","EPOCH":"2022-06-20T19:05:08.238336","MEAN_ELEMENT_THEORY":"SGP4","PERIAPSIS":"546.159","CENTER_NAME":"EARTH","TLE_LINE2":"2 47398  53.0544   7.4526 0001548  72.7862 287.3296 15.06394205 78791","SITE":"AFETR","SEMIMAJOR_AXIS":"6925.366","GP_ID":"206513588","OBJECT_ID":"2021-005BB","APOAPSIS":"548.303","FILE":"3498404","MEAN_MOTION":"15.06394205","OBJECT_TYPE":"PAYLOAD","EPHEMERIS_TYPE":"0"},{"REF_FRAME":"TEME","COUNTRY_CODE":"US","BSTAR":"-0.00024144000000","TLE_LINE1":"1 47399U 21005BC  22171.83119920 -.00003878  00000-0 -24144-3 0  9992","ELEMENT_SET_NO":"999","PERIOD":"95.591","RCS_SIZE":"LARGE","INCLINATION":"53.0560","DECAY_DATE":null,"ARG_OF_PERICENTER":"66.6463","TIME_SYSTEM":"UTC","CLASSIFICATION_TYPE":"U","ECCENTRICITY":"0.00016440","MEAN_ANOMALY":"293.4699","OBJECT_NAME":"STARLINK-2121","MEAN_MOTION_DOT":"-0.00003878","REV_AT_EPOCH":"7865","APOAPSIS":"548.298","OBJECT_ID":"2021-005BC","SEMIMAJOR_AXIS":"6925.294","GP_ID":"206513832","CENTER_NAME":"EARTH","TLE_LINE2":"2 47399  53.0560  17.5256 0001644  66.6463 293.4699 15.06417775 78656","SITE":"AFETR","PERIAPSIS":"546.021","EPHEMERIS_TYPE":"0","OBJECT_TYPE":"PAYLOAD","FILE":"3498404","MEAN_MOTION":"15.06417775","LAUNCH_DATE":"2021-01-20","MEAN_MOTION_DDOT":"0.0000000000000","NORAD_CAT_ID":"47399","RA_OF_ASC_NODE":"17.5256","EPOCH":"2022-06-20T19:56:55.610880","MEAN_ELEMENT_THEORY":"SGP4"},{"INCLINATION":"53.0570","RCS_SIZE":"LARGE","PERIOD":"95.592","ELEMENT_SET_NO":"999","TIME_SYSTEM":"UTC","ARG_OF_PERICENTER":"67.8209","DECAY_DATE":null,"BSTAR":"0.00005517700000","COUNTRY_CODE":"US","REF_FRAME":"TEME","TLE_LINE1":"1 47400U 21005BD  22171.79247175  .00000540  00000-0  55177-4 0  9996","REV_AT_EPOCH":"7893","MEAN_MOTION_DOT":"0.00000540","OBJECT_NAME":"STARLINK-2122","ECCENTRICITY":"0.00016670","MEAN_ANOMALY":"292.2957","CLASSIFICATION_TYPE":"U","OBJECT_TYPE":"PAYLOAD","EPHEMERIS_TYPE":"0","MEAN_MOTION":"15.06395200","FILE":"3498404","SEMIMAJOR_AXIS":"6925.363","GP_ID":"206512595","OBJECT_ID":"2021-005BD","APOAPSIS":"548.383","PERIAPSIS":"546.074","TLE_LINE2":"2 47400  53.0570 357.4609 0001667  67.8209 292.2957 15.06395200 78937","SITE":"AFETR","CENTER_NAME":"EARTH","EPOCH":"2022-06-20T19:01:09.559200","MEAN_ELEMENT_THEORY":"SGP4","LAUNCH_DATE":"2021-01-20","NORAD_CAT_ID":"47400","RA_OF_ASC_NODE":"357.4609","MEAN_MOTION_DDOT":"0.0000000000000"}];
